[{"OBJECT_NAME":"HULIANWANG DIGUI-81","OBJECT_ID":"2025-187J","EPOCH":"2026-03-03T12:02:39.471072","MEAN_MOTION":13.2934122,"ECCENTRICITY":0.0001066,"INCLINATION":50.0055,"RA_OF_ASC_NODE":224.8693,"ARG_OF_PERICENTER":131.0429,"MEAN_ANOMALY":229.0536,"EPHEMERIS_TYPE":0,"CLASSIFICATION_TYPE":"U","NORAD_CAT_ID":65313,"ELEMENT_SET_NO":999,"REV_AT_EPOCH":2565,"BSTAR":5.8012e-5,"MEAN_MOTION_DOT":-9.7e-7,"MEAN_MOTION_DDOT":0},{"OBJECT_NAME":"HULIANWANG DIGUI-82","OBJECT_ID":"2025-220A","EPOCH":"2026-03-03T11:20:29.643648","MEAN_MOTION":13.24421754,"ECCENTRICITY":0.0002233,"INCLINATION":86.4897,"RA_OF_ASC_NODE":79.5672,"ARG_OF_PERICENTER":102.3155,"MEAN_ANOMALY":257.8229,"EPHEMERIS_TYPE":0,"CLASSIFICATION_TYPE":"U","NORAD_CAT_ID":65817,"ELEMENT_SET_NO":999,"REV_AT_EPOCH":2092,"BSTAR":9.1622e-5,"MEAN_MOTION_DOT":5.4e-7,"MEAN_MOTION_DDOT":0},{"OBJECT_NAME":"HULIANWANG DIGUI-83","OBJECT_ID":"2025-220B","EPOCH":"2026-03-03T11:09:41.082912","MEAN_MOTION":13.24420964,"ECCENTRICITY":0.0002227,"INCLINATION":86.492,"RA_OF_ASC_NODE":79.5996,"ARG_OF_PERICENTER":102.1329,"MEAN_ANOMALY":258.0054,"EPHEMERIS_TYPE":0,"CLASSIFICATION_TYPE":"U","NORAD_CAT_ID":65818,"ELEMENT_SET_NO":999,"REV_AT_EPOCH":2092,"BSTAR":0.00014991,"MEAN_MOTION_DOT":7.9e-7,"MEAN_MOTION_DDOT":0},{"OBJECT_NAME":"HULIANWANG DIGUI-84","OBJECT_ID":"2025-220C","EPOCH":"2026-03-03T10:58:46.073280","MEAN_MOTION":13.24421353,"ECCENTRICITY":0.0002224,"INCLINATION":86.4857,"RA_OF_ASC_NODE":79.4943,"ARG_OF_PERICENTER":101.1681,"MEAN_ANOMALY":258.9703,"EPHEMERIS_TYPE":0,"CLASSIFICATION_TYPE":"U","NORAD_CAT_ID":65819,"ELEMENT_SET_NO":999,"REV_AT_EPOCH":2092,"BSTAR":0.00014659,"MEAN_MOTION_DOT":7.8e-7,"MEAN_MOTION_DDOT":0},{"OBJECT_NAME":"HULIANWANG DIGUI-85","OBJECT_ID":"2025-220D","EPOCH":"2026-03-03T10:47:49.415136","MEAN_MOTION":13.24421854,"ECCENTRICITY":0.0002216,"INCLINATION":86.4917,"RA_OF_ASC_NODE":79.5899,"ARG_OF_PERICENTER":102.4259,"MEAN_ANOMALY":257.7123,"EPHEMERIS_TYPE":0,"CLASSIFICATION_TYPE":"U","NORAD_CAT_ID":65820,"ELEMENT_SET_NO":999,"REV_AT_EPOCH":2092,"BSTAR":0.00013187,"MEAN_MOTION_DOT":7.1e-7,"MEAN_MOTION_DDOT":0},{"OBJECT_NAME":"HULIANWANG DIGUI-86","OBJECT_ID":"2025-220E","EPOCH":"2026-03-03T10:37:04.135872","MEAN_MOTION":13.2442069,"ECCENTRICITY":0.0002211,"INCLINATION":86.4896,"RA_OF_ASC_NODE":79.5515,"ARG_OF_PERICENTER":102.2596,"MEAN_ANOMALY":257.8786,"EPHEMERIS_TYPE":0,"CLASSIFICATION_TYPE":"U","NORAD_CAT_ID":65821,"ELEMENT_SET_NO":999,"REV_AT_EPOCH":2092,"BSTAR":0.00011773,"MEAN_MOTION_DOT":6.5e-7,"MEAN_MOTION_DDOT":0},{"OBJECT_NAME":"HULIANWANG DIGUI-87","OBJECT_ID":"2025-231A","EPOCH":"2026-03-03T11:06:47.456064","MEAN_MOTION":13.2933019,"ECCENTRICITY":6.09e-5,"INCLINATION":49.9989,"RA_OF_ASC_NODE":195.0568,"ARG_OF_PERICENTER":176.1071,"MEAN_ANOMALY":183.9806,"EPHEMERIS_TYPE":0,"CLASSIFICATION_TYPE":"U","NORAD_CAT_ID":65995,"ELEMENT_SET_NO":999,"REV_AT_EPOCH":1882,"BSTAR":2.9746e-5,"MEAN_MOTION_DOT":-1.1e-6,"MEAN_MOTION_DDOT":0},{"OBJECT_NAME":"HULIANWANG DIGUI-88","OBJECT_ID":"2025-231B","EPOCH":"2026-03-03T11:18:51.028416","MEAN_MOTION":13.29329225,"ECCENTRICITY":6.26e-5,"INCLINATION":49.9975,"RA_OF_ASC_NODE":195.0868,"ARG_OF_PERICENTER":181.5508,"MEAN_ANOMALY":178.5363,"EPHEMERIS_TYPE":0,"CLASSIFICATION_TYPE":"U","NORAD_CAT_ID":65996,"ELEMENT_SET_NO":999,"REV_AT_EPOCH":1882,"BSTAR":3.8507e-5,"MEAN_MOTION_DOT":-1.06e-6,"MEAN_MOTION_DDOT":0},{"OBJECT_NAME":"HULIANWANG DIGUI-89","OBJECT_ID":"2025-231C","EPOCH":"2026-03-03T10:54:45.515808","MEAN_MOTION":13.29329847,"ECCENTRICITY":6.41e-5,"INCLINATION":49.9953,"RA_OF_ASC_NODE":194.9743,"ARG_OF_PERICENTER":182.515,"MEAN_ANOMALY":177.5719,"EPHEMERIS_TYPE":0,"CLASSIFICATION_TYPE":"U","NORAD_CAT_ID":65997,"ELEMENT_SET_NO":999,"REV_AT_EPOCH":1882,"BSTAR":3.235e-5,"MEAN_MOTION_DOT":-1.09e-6,"MEAN_MOTION_DDOT":0},{"OBJECT_NAME":"HULIANWANG DIGUI-90","OBJECT_ID":"2025-231D","EPOCH":"2026-03-03T07:06:12.773088","MEAN_MOTION":13.2933,"ECCENTRICITY":6.07e-5,"INCLINATION":49.9982,"RA_OF_ASC_NODE":195.5031,"ARG_OF_PERICENTER":181.2737,"MEAN_ANOMALY":178.8133,"EPHEMERIS_TYPE":0,"CLASSIFICATION_TYPE":"U","NORAD_CAT_ID":65998,"ELEMENT_SET_NO":999,"REV_AT_EPOCH":1880,"BSTAR":2.3506e-5,"MEAN_MOTION_DOT":-1.13e-6,"MEAN_MOTION_DDOT":0},{"OBJECT_NAME":"HULIANWANG DIGUI-91","OBJECT_ID":"2025-231E","EPOCH":"2026-03-03T10:30:42.140736","MEAN_MOTION":13.29329899,"ECCENTRICITY":6.33e-5,"INCLINATION":50.0001,"RA_OF_ASC_NODE":194.9441,"ARG_OF_PERICENTER":180.7988,"MEAN_ANOMALY":179.2883,"EPHEMERIS_TYPE":0,"CLASSIFICATION_TYPE":"U","NORAD_CAT_ID":65999,"ELEMENT_SET_NO":999,"REV_AT_EPOCH":1882,"BSTAR":2.5928e-5,"MEAN_MOTION_DOT":-1.12e-6,"MEAN_MOTION_DDOT":0},{"OBJECT_NAME":"HULIANWANG DIGUI-92","OBJECT_ID":"2025-231F","EPOCH":"2026-03-03T10:18:39.560256","MEAN_MOTION":13.29330407,"ECCENTRICITY":6.28e-5,"INCLINATION":50.0042,"RA_OF_ASC_NODE":194.9453,"ARG_OF_PERICENTER":181.1598,"MEAN_ANOMALY":178.9273,"EPHEMERIS_TYPE":0,"CLASSIFICATION_TYPE":"U","NORAD_CAT_ID":66000,"ELEMENT_SET_NO":999,"REV_AT_EPOCH":1882,"BSTAR":3.272e-5,"MEAN_MOTION_DOT":-1.09e-6,"MEAN_MOTION_DDOT":0},{"OBJECT_NAME":"HULIANWANG DIGUI-93","OBJECT_ID":"2025-231G","EPOCH":"2026-03-03T09:54:38.969856","MEAN_MOTION":13.29329508,"ECCENTRICITY":6.09e-5,"INCLINATION":50.0009,"RA_OF_ASC_NODE":194.8259,"ARG_OF_PERICENTER":180.3342,"MEAN_ANOMALY":179.753,"EPHEMERIS_TYPE":0,"CLASSIFICATION_TYPE":"U","NORAD_CAT_ID":66001,"ELEMENT_SET_NO":999,"REV_AT_EPOCH":1882,"BSTAR":4.9864e-5,"MEAN_MOTION_DOT":-1.01e-6,"MEAN_MOTION_DDOT":0},{"OBJECT_NAME":"HULIANWANG DIGUI-94","OBJECT_ID":"2025-231H","EPOCH":"2026-03-03T10:06:38.020896","MEAN_MOTION":13.29330633,"ECCENTRICITY":6.29e-5,"INCLINATION":50.0048,"RA_OF_ASC_NODE":194.9133,"ARG_OF_PERICENTER":181.8466,"MEAN_ANOMALY":178.2404,"EPHEMERIS_TYPE":0,"CLASSIFICATION_TYPE":"U","NORAD_CAT_ID":66002,"ELEMENT_SET_NO":999,"REV_AT_EPOCH":1882,"BSTAR":3.9981e-5,"MEAN_MOTION_DOT":-1.05e-6,"MEAN_MOTION_DDOT":0},{"OBJECT_NAME":"HULIANWANG DIGUI-95","OBJECT_ID":"2025-231J","EPOCH":"2026-03-03T11:31:04.700928","MEAN_MOTION":13.29325614,"ECCENTRICITY":6.33e-5,"INCLINATION":50.0021,"RA_OF_ASC_NODE":194.5276,"ARG_OF_PERICENTER":178.0347,"MEAN_ANOMALY":182.0528,"EPHEMERIS_TYPE":0,"CLASSIFICATION_TYPE":"U","NORAD_CAT_ID":66003,"ELEMENT_SET_NO":999,"REV_AT_EPOCH":1883,"BSTAR":3.9133e-5,"MEAN_MOTION_DOT":-1.06e-6,"MEAN_MOTION_DDOT":0},{"OBJECT_NAME":"HULIANWANG DIGUI-96","OBJECT_ID":"2025-258A","EPOCH":"2026-03-03T01:15:21.379392","MEAN_MOTION":13.29331174,"ECCENTRICITY":3.64e-5,"INCLINATION":50.0054,"RA_OF_ASC_NODE":316.295,"ARG_OF_PERICENTER":88.9418,"MEAN_ANOMALY":271.1496,"EPHEMERIS_TYPE":0,"CLASSIFICATION_TYPE":"U","NORAD_CAT_ID":66412,"ELEMENT_SET_NO":999,"REV_AT_EPOCH":1561,"BSTAR":0.00016655,"MEAN_MOTION_DOT":-4.7e-7,"MEAN_MOTION_DDOT":0}]
