HULIANWANG DIGUI-81     
1 65313U 25187J   26062.50184573 -.00000097  00000+0  58012-4 0  9996
2 65313  50.0055 224.8693 0001066 131.0429 229.0536 13.29341220 25654
HULIANWANG DIGUI-82     
1 65817U 25220A   26062.47256532  .00000054  00000+0  91622-4 0  9990
2 65817  86.4897  79.5672 0002233 102.3155 257.8229 13.24421754 20925
HULIANWANG DIGUI-83     
1 65818U 25220B   26062.46505883  .00000079  00000+0  14991-3 0  9996
2 65818  86.4920  79.5996 0002227 102.1329 258.0054 13.24420964 20927
HULIANWANG DIGUI-84     
1 65819U 25220C   26062.45747770  .00000078  00000+0  14659-3 0  9999
2 65819  86.4857  79.4943 0002224 101.1681 258.9703 13.24421353 20928
HULIANWANG DIGUI-85     
1 65820U 25220D   26062.44987749  .00000071  00000+0  13187-3 0  9990
2 65820  86.4917  79.5899 0002216 102.4259 257.7123 13.24421854 20923
HULIANWANG DIGUI-86     
1 65821U 25220E   26062.44240898  .00000065  00000+0  11773-3 0  9990
2 65821  86.4896  79.5515 0002211 102.2596 257.8786 13.24420690 20925
HULIANWANG DIGUI-87     
1 65995U 25231A   26062.46304926 -.00000110  00000+0  29746-4 0  9991
2 65995  49.9989 195.0568 0000609 176.1071 183.9806 13.29330190 18821
HULIANWANG DIGUI-88     
1 65996U 25231B   26062.47142394 -.00000106  00000+0  38507-4 0  9992
2 65996  49.9975 195.0868 0000626 181.5508 178.5363 13.29329225 18829
HULIANWANG DIGUI-89     
1 65997U 25231C   26062.45469347 -.00000109  00000+0  32350-4 0  9994
2 65997  49.9953 194.9743 0000641 182.5150 177.5719 13.29329847 18821
HULIANWANG DIGUI-90     
1 65998U 25231D   26062.29598117 -.00000113  00000+0  23506-4 0  9993
2 65998  49.9982 195.5031 0000607 181.2737 178.8133 13.29330000 18805
HULIANWANG DIGUI-91     
1 65999U 25231E   26062.43798774 -.00000112  00000+0  25928-4 0  9990
2 65999  50.0001 194.9441 0000633 180.7988 179.2883 13.29329899 18823
HULIANWANG DIGUI-92     
1 66000U 25231F   26062.42962454 -.00000109  00000+0  32720-4 0  9995
2 66000  50.0042 194.9453 0000628 181.1598 178.9273 13.29330407 18827
HULIANWANG DIGUI-93     
1 66001U 25231G   26062.41295104 -.00000101  00000+0  49864-4 0  9995
2 66001  50.0009 194.8259 0000609 180.3342 179.7530 13.29329508 18826
HULIANWANG DIGUI-94     
1 66002U 25231H   26062.42127339 -.00000105  00000+0  39981-4 0  9994
2 66002  50.0048 194.9133 0000629 181.8466 178.2404 13.29330633 18822
HULIANWANG DIGUI-95     
1 66003U 25231J   26062.47991552 -.00000106  00000+0  39133-4 0  9996
2 66003  50.0021 194.5276 0000633 178.0347 182.0528 13.29325614 18833
HULIANWANG DIGUI-96     
1 66412U 25258A   26062.05233078 -.00000047  00000+0  16655-3 0  9992
2 66412  50.0054 316.2950 0000364  88.9418 271.1496 13.29331174 15619
